[{"OBJECT_NAME":"KUIPER-00015","OBJECT_ID":"2025-088H","EPOCH":"2026-03-09T12:30:02.006784","MEAN_MOTION":14.83626832,"ECCENTRICITY":0.00099098,"INCLINATION":51.8981,"RA_OF_ASC_NODE":119.0847,"ARG_OF_PERICENTER":68.1403,"MEAN_ANOMALY":292.0614,"EPHEMERIS_TYPE":0,"CLASSIFICATION_TYPE":"U","NORAD_CAT_ID":63731,"ELEMENT_SET_NO":999,"REV_AT_EPOCH":4767,"BSTAR":-0.0010321655,"MEAN_MOTION_DOT":-8.826e-5,"MEAN_MOTION_DDOT":0},{"OBJECT_NAME":"DMSP 5D-2 F11 DEB","OBJECT_ID":"1991-082CQ","EPOCH":"2026-03-09T04:24:17.495712","MEAN_MOTION":14.80535874,"ECCENTRICITY":0.00217802,"INCLINATION":98.804,"RA_OF_ASC_NODE":157.6646,"ARG_OF_PERICENTER":309.7308,"MEAN_ANOMALY":80.4142,"EPHEMERIS_TYPE":0,"CLASSIFICATION_TYPE":"U","NORAD_CAT_ID":35534,"ELEMENT_SET_NO":999,"REV_AT_EPOCH":74495,"BSTAR":0.0048551764,"MEAN_MOTION_DOT":0.0003748,"MEAN_MOTION_DDOT":0}]
